GLOBALSTAR M024         
1 25883U 99043A   26009.01480188 -.00000044  00000+0  74077-3 0  9994
2 25883  52.0017 276.2045 0002351  65.5292 307.3406 11.10165758137727
GLOBALSTAR M027         
1 25884U 99043B   26008.68761380 -.00000060  00000+0  11500-3 0  9993
2 25884  52.0243   0.7445 0021376 323.4801  36.4534 11.04372601163948
GLOBALSTAR M054         
1 25885U 99043C   26008.99613601 -.00000087  00000+0 -39857-3 0  9995
2 25885  52.0146  92.8157 0005397 166.5658   4.8034 11.39224805142507
GLOBALSTAR M053         
1 25886U 99043D   26008.83678755 -.00000063  00000+0  17798-3 0  9993
2 25886  52.0001  51.7030 0003488  79.2630  92.1101 11.27669142142645
GLOBALSTAR M058         
1 25907U 99049A   26008.96481222 -.00000063  00000+0  28496-3 0  9995
2 25907  51.9950 279.6921 0001854 329.5046  30.5681 11.93206643566103
GLOBALSTAR M050         
1 25908U 99049B   26008.99625213 -.00000112  00000+0 -27057-3 0  9997
2 25908  51.9988 271.9078 0009950  79.8298 293.9336 12.07463066173052
GLOBALSTAR M033         
1 25909U 99049C   26008.61470847 -.00000014  00000+0  74654-3 0  9993
2 25909  51.9906 130.5967 0013482 329.5881  30.4183 12.20296477560822
GLOBALSTAR M055         
1 25910U 99049D   26008.62098195 -.00000079  00000+0  12936-3 0  9994
2 25910  52.0015 131.3210 0007153 190.0525 170.0184 12.29438964193553
